ORBCOMM FM05            
1 25117U 97084F   25008.84305965  .00002429  00000+0  73183-3 0  9990
2 25117  45.0154  52.5833 0001676 222.0585 138.0138 14.44912781417554
ORBCOMM FM06            
1 25118U 97084G   25008.60079137  .00002448  00000+0  73428-3 0  9997
2 25118  45.0145  53.6774 0001999 251.5214 243.1661 14.45089143418430
ORBCOMM FM07            
1 25119U 97084H   25008.79158390  .00002636  00000+0  78937-3 0  9996
2 25119  45.0142  53.4904 0001473 193.2337 166.8476 14.44988321418458
ORBCOMM FM03            
1 25158U 98007B   25008.88832265  .00002389  00000+0  89410-3 0  9998
2 25158 107.9671 168.4934 0045802 170.6837 189.5161 14.33797902401203
ORBCOMM FM04            
1 25159U 98007C   25009.11032659  .00002434  00000+0  90744-3 0  9998
2 25159 107.9659 172.0603 0041327 168.1033 192.1091 14.34063310401529
ORBCOMM FM17            
1 25413U 98046A   25008.88387888  .00001682  00000+0  64067-3 0  9997
2 25413  44.9942 289.1292 0001579 104.5884 255.5138 14.34498934380294
ORBCOMM FM18            
1 25414U 98046B   25009.00007697  .00001643  00000+0  58787-3 0  9999
2 25414  44.9907 210.1023 0004923 189.6089 170.4666 14.37716240381501
ORBCOMM FM19            
1 25415U 98046C   25008.85896929  .00001787  00000+0  63774-3 0  9997
2 25415  44.9918 212.5216 0003776 179.0754 195.5090 14.37531685381272
